CAS-2T & KS-1Q          
1 41847U 16066G   20186.87981013  .00000062  00000-0  19543-4 0  9991
2 41847  98.6526 237.5725 0365823 176.8310 183.5322 14.38075107191928
NAYIF-1 (EO-88)         
1 42017U 17008BX  20186.85449010  .00000971  00000-0  39898-4 0  9996
2 42017  97.3591 254.1627 0004487 256.2308 103.8431 15.26538274188208
MAX VALIER SAT          
1 42778U 17036P   20186.75751121  .00000592  00000-0  28341-4 0  9999
2 42778  97.3037 239.9141 0011078 328.8370  31.2209 15.22646514168363
RADFXSAT (FOX-1B)       
1 43017U 17073E   20186.70950523  .00000454  00000-0  40811-4 0  9992
2 43017  97.7224  98.2791 0256890 354.5125   5.3282 14.78958866141715
FOX-1D (AO-92)          
1 43137U 18004AC  20186.75082981  .00000623  00000-0  28545-4 0  9997
2 43137  97.4451 257.7945 0009116   6.1378 353.9969 15.24151069137673
DIWATA-2B               
1 43678U 18084H   20186.84844968  .00000285  00000-0  34042-4 0  9999
2 43678  97.8864 305.2530 0011167 115.8888 244.3461 14.91639960 91614
ES'HAIL 2               
1 43700U 18090A   20186.81021453  .00000134  00000-0  00000-0 0  9991
2 43700   0.0276  40.2472 0001689  85.5998 114.8784  1.00270083  5883
FOX-1CLIFF (AO-95)      
1 43770U 18099N   20186.84380856 -.00000206  00000-0 -13624-4 0  9997
2 43770  97.7052 257.9212 0015681 135.0875 225.1617 14.95000200 86516
ITASAT 1                
1 43786U 18099AE  20186.76988647 -.00000086  00000-0 -25916-5 0  9991
2 43786  97.7069 258.2805 0016427 129.3412 230.9268 14.95339151 86522
JY1SAT (JO-97)          
1 43803U 18099AX  20186.71545458 -.00000226  00000-0 -15136-4 0  9993
2 43803  97.7027 258.0417 0016331 130.1650 230.1004 14.95515742 86512
PSAT2 (NO-104)          
1 44354U 19036R   20186.51615510  .00007954  00000-0  11379-3 0  9999
2 44354  28.5290 268.5342 0363804 133.2204 229.9365 15.03656181 56392
BRICSAT2 (NO-103)       
1 44355U 19036S   20186.52866351  .00014839  00000-0  20525-3 0  9995
2 44355  28.5291 258.8684 0341887 148.9156 213.2145 15.09182640 56494
JAISAT-1                
1 44419U 19038F   20186.88525957  .00000536  00000-0  34126-4 0  9993
2 44419  97.5394 148.2773 0023254  71.8897 288.4864 15.12802562 55236
DUCHIFAT-3              
1 44854U 19089C   20186.81250836  .00000155  00000-0  18965-4 0  9996
2 44854  36.9697 355.7655 0008046 215.2380 144.7823 14.99077617 30904
RS-44 & BREEZE-KM R/B   
1 44909U 19096E   20186.87146646  .00000008  00000-0 -15113-4 0  9994
2 44909  82.5219 343.7371 0217348 185.5003 174.3710 12.79708204 24414
ORBITAL FACTORY 2 (OF-2)
1 45113U 19071C   20186.55944892  .00000796  00000-0  35855-4 0  9997
2 45113  51.6444 280.9112 0013459 118.5704 241.6634 15.33404035 23752
HUSKYSAT-1              
1 45119U 19071J   20186.53545618  .00000993  00000-0  41591-4 0  9997
2 45119  51.6440 280.7521 0012775 114.9450 245.2861 15.33617042 23749
